[{"OBJECT_NAME":"JY1SAT (JO-97)","OBJECT_ID":"2018-099AX","EPOCH":"2026-03-09T16:28:19.890048","MEAN_MOTION":15.30302629,"ECCENTRICITY":0.00047232,"INCLINATION":97.4249,"RA_OF_ASC_NODE":131.3625,"ARG_OF_PERICENTER":256.6795,"MEAN_ANOMALY":103.3919,"EPHEMERIS_TYPE":0,"CLASSIFICATION_TYPE":"U","NORAD_CAT_ID":43803,"ELEMENT_SET_NO":999,"REV_AT_EPOCH":39839,"BSTAR":0.00060804308,"MEAN_MOTION_DOT":0.00017774,"MEAN_MOTION_DDOT":0},{"OBJECT_NAME":"STARLINK-35422","OBJECT_ID":"2025-235L","EPOCH":"2026-03-09T21:26:40.006176","MEAN_MOTION":15.30208446,"ECCENTRICITY":5.501e-5,"INCLINATION":53.1589,"RA_OF_ASC_NODE":244.2529,"ARG_OF_PERICENTER":81.3897,"MEAN_ANOMALY":278.7166,"EPHEMERIS_TYPE":0,"CLASSIFICATION_TYPE":"U","NORAD_CAT_ID":66068,"ELEMENT_SET_NO":999,"REV_AT_EPOCH":2292,"BSTAR":0.0012731636,"MEAN_MOTION_DOT":0.00037549,"MEAN_MOTION_DDOT":0}]
